COMMENT,ORIGINATOR,NORAD_CAT_ID,OBJECT_NAME,OBJECT_TYPE,CLASSIFICATION_TYPE,INTLDES,EPOCH,EPOCH_MICROSECONDS,MEAN_MOTION,ECCENTRICITY,INCLINATION,RA_OF_ASC_NODE,ARG_OF_PERICENTER,MEAN_ANOMALY,EPHEMERIS_TYPE,ELEMENT_SET_NO,REV_AT_EPOCH,BSTAR,MEAN_MOTION_DOT,MEAN_MOTION_DDOT,FILE,TLE_LINE0,TLE_LINE1,TLE_LINE2,OBJECT_ID,OBJECT_NUMBER,SEMIMAJOR_AXIS,PERIOD,APOGEE,PERIGEE,DECAYED,date
GENERATED VIA SPACETRACK.ORG API,18 SPCS,46301,SPACEBEE-20,PAYLOAD,U,20061AF,2023/1/31 10:24,119616,15.32809123,0.0000523,97.4285,106.9179,339.1198,21.0022,0,999,13325,0.0016325,0.00051944,0,3766475,0 SPACEBEE-20,1 46301U 20061AF  23031.43399444  .00051944  00000-0  16325-2 0  9994,2 46301  97.4285 106.9179 0000523 339.1198  21.0022 15.32809123133253,2020-061AF,46301,6845.573,93.945,467.796,467.08,1,2023/3/11
GENERATED VIA SPACETRACK.ORG API,18 SPCS,46301,SPACEBEE-20,PAYLOAD,U,20061AF,2023/1/31 15:06,29984,15.32833147,0.000053,97.4285,107.1144,337.7104,22.4115,0,999,13328,0.0016564,0.00052751,0,3766747,0 SPACEBEE-20,1 46301U 20061AF  23031.62983831  .00052751  00000-0  16564-2 0  9996,2 46301  97.4285 107.1144 0000530 337.7104  22.4115 15.32833147133281,2020-061AF,46301,6845.501,93.944,467.729,467.003,1,2023/3/12
GENERATED VIA SPACETRACK.ORG API,18 SPCS,46301,SPACEBEE-20,PAYLOAD,U,20061AF,2023/2/1 3:38,241984,15.32891906,0.000058,97.4283,107.6384,338.8734,21.2484,0,999,13336,0.0017174,0.00054812,0,3767428,0 SPACEBEE-20,1 46301U 20061AF  23032.15207456  .00054812  00000-0  17174-2 0  9995,2 46301  97.4283 107.6384 0000580 338.8734  21.2484 15.32891906133368,2020-061AF,46301,6845.326,93.94,467.588,466.794,1,2023/3/13
GENERATED VIA SPACETRACK.ORG API,18 SPCS,46301,SPACEBEE-20,PAYLOAD,U,20061AF,2023/2/1 3:38,241984,15.32891906,0.000058,97.4283,107.6384,338.8734,21.2484,0,999,13336,0.0017174,0.00054812,0,3767525,0 SPACEBEE-20,1 46301U 20061AF  23032.15207456  .00054812  00000-0  17174-2 0  9995,2 46301  97.4283 107.6384 0000580 338.8734  21.2484 15.32891906133368,2020-061AF,46301,6845.326,93.94,467.588,466.794,1,2023/3/14
GENERATED VIA SPACETRACK.ORG API,18 SPCS,46301,SPACEBEE-20,PAYLOAD,U,20061AF,2023/2/2 4:42,653056,15.33011476,0.000047,97.4285,108.6877,328.6548,31.4666,0,999,13352,0.0019824,0.00063594,0,3768366,0 SPACEBEE-20,1 46301U 20061AF  23033.19648904  .00063594  00000-0  19824-2 0  9998,2 46301  97.4285 108.6877 0000470 328.6548  31.4666 15.33011476133526,2020-061AF,46301,6844.97,93.933,467.157,466.514,1,2023/3/15
GENERATED VIA SPACETRACK.ORG API,18 SPCS,46301,SPACEBEE-20,PAYLOAD,U,20061AF,2023/2/2 18:48,223328,15.33067492,0.0000536,97.4281,109.2778,323.5787,36.5419,0,999,13361,0.0013967,0.00044749,0,3768914,0 SPACEBEE-20,1 46301U 20061AF  23033.78393777  .00044749  00000-0  13967-2 0  9991,2 46301  97.4281 109.2778 0000536 323.5787  36.5419 15.33067492133612,2020-061AF,46301,6844.804,93.929,467.035,466.302,1,2023/3/16
GENERATED VIA SPACETRACK.ORG API,18 SPCS,46301,SPACEBEE-20,PAYLOAD,U,20061AF,2023/2/3 4:12,184416,15.33110544,0.0000491,97.4281,109.6709,316.0616,44.0587,0,999,13367,0.0015859,0.00050931,0,3770323,0 SPACEBEE-20,1 46301U 20061AF  23034.17555769  .00050931  00000-0  15859-2 0  9998,2 46301  97.4281 109.6709 0000491 316.0616  44.0587 15.33110544133671,2020-061AF,46301,6844.675,93.927,466.877,466.204,1,2023/3/17
GENERATED VIA SPACETRACK.ORG API,18 SPCS,46301,SPACEBEE-20,PAYLOAD,U,20061AF,2023/2/3 15:10,330432,15.33155594,0.0000565,97.428,110.1303,320.0637,40.0564,0,999,13374,0.0015994,0.00051442,0,3770514,0 SPACEBEE-20,1 46301U 20061AF  23034.63243438  .00051442  00000-0  15994-2 0  9994,2 46301  97.4280 110.1303 0000565 320.0637  40.0564 15.33155594133740,2020-061AF,46301,6844.541,93.924,466.793,466.02,1,2023/3/18
GENERATED VIA SPACETRACK.ORG API,18 SPCS,46301,SPACEBEE-20,PAYLOAD,U,20061AF,2023/2/3 15:10,330432,15.33155594,0.0000565,97.428,110.1303,320.0637,40.0564,0,999,13374,0.0015994,0.00051442,0,3770748,0 SPACEBEE-20,1 46301U 20061AF  23034.63243438  .00051442  00000-0  15994-2 0  9994,2 46301  97.4280 110.1303 0000565 320.0637  40.0564 15.33155594133740,2020-061AF,46301,6844.541,93.924,466.793,466.02,1,2023/3/19
GENERATED VIA SPACETRACK.ORG API,18 SPCS,46301,SPACEBEE-20,PAYLOAD,U,20061AF,2023/2/4 3:42,953760,15.33221689,0.0000507,97.4279,110.6543,312.2164,47.9035,0,999,13382,0.00179,0.00057749,0,3771764,0 SPACEBEE-20,1 46301U 20061AF  23035.15455965  .00057749  00000-0  17900-2 0  9997,2 46301  97.4279 110.6543 0000507 312.2164  47.9035 15.33221689133820,2020-061AF,46301,6844.345,93.92,466.557,465.863,1,2023/3/20
GENERATED VIA SPACETRACK.ORG API,18 SPCS,46301,SPACEBEE-20,PAYLOAD,U,20061AF,2023/2/4 3:42,953760,15.33221689,0.0000507,97.4279,110.6543,312.2164,47.9035,0,999,13382,0.00179,0.00057749,0,3771952,0 SPACEBEE-20,1 46301U 20061AF  23035.15455965  .00057749  00000-0  17900-2 0  9997,2 46301  97.4279 110.6543 0000507 312.2164  47.9035 15.33221689133820,2020-061AF,46301,6844.345,93.92,466.557,465.863,1,2023/3/21
GENERATED VIA SPACETRACK.ORG API,18 SPCS,46301,SPACEBEE-20,PAYLOAD,U,20061AF,2023/2/4 20:56,367232,15.33306707,0.00006,97.428,111.376,317.2821,42.8375,0,999,13393,0.0015577,0.00050329,0,3772514,0 SPACEBEE-20,1 46301U 20061AF  23035.87244638  .00050329  00000-0  15577-2 0  9994,2 46301  97.4280 111.3760 0000600 317.2821  42.8375 15.33306707133938,2020-061AF,46301,6844.092,93.915,466.367,465.546,1,2023/3/22
GENERATED VIA SPACETRACK.ORG API,18 SPCS,46301,SPACEBEE-20,PAYLOAD,U,20061AF,2023/2/5 4:46,630208,15.33345483,0.000049,97.4278,111.7035,312.4801,47.64,0,999,13398,0.00147,0.00047532,0,3773419,0 SPACEBEE-20,1 46301U 20061AF  23036.19874572  .00047532  00000-0  14700-2 0  9995,2 46301  97.4278 111.7035 0000490 312.4801  47.6400 15.33345483133987,2020-061AF,46301,6843.976,93.912,466.177,465.506,1,2023/3/23
GENERATED VIA SPACETRACK.ORG API,18 SPCS,46301,SPACEBEE-20,PAYLOAD,U,20061AF,2023/2/5 4:46,630208,15.33345483,0.000049,97.4278,111.7035,312.4801,47.64,0,999,13398,0.00147,0.00047532,0,3773728,0 SPACEBEE-20,1 46301U 20061AF  23036.19874572  .00047532  00000-0  14700-2 0  9995,2 46301  97.4278 111.7035 0000490 312.4801  47.6400 15.33345483133987,2020-061AF,46301,6843.976,93.912,466.177,465.506,1,2023/3/24
GENERATED VIA SPACETRACK.ORG API,18 SPCS,46301,SPACEBEE-20,PAYLOAD,U,20061AF,2023/2/5 18:51,970208,15.33409505,0.0000562,97.4273,112.2939,312.9617,47.1578,0,999,13407,0.001606,0.00052072,0,3774172,0 SPACEBEE-20,1 46301U 20061AF  23036.78606447  .00052072  00000-0  16060-2 0  9990,2 46301  97.4273 112.2939 0000562 312.9617  47.1578 15.33409505134079,2020-061AF,46301,6843.786,93.908,466.035,465.266,1,2023/3/25
GENERATED VIA SPACETRACK.ORG API,18 SPCS,46301,SPACEBEE-20,PAYLOAD,U,20061AF,2023/2/5 18:51,970208,15.33409505,0.0000562,97.4273,112.2939,312.9617,47.1578,0,999,13407,0.001606,0.00052072,0,3774518,0 SPACEBEE-20,1 46301U 20061AF  23036.78606447  .00052072  00000-0  16060-2 0  9990,2 46301  97.4273 112.2939 0000562 312.9617  47.1578 15.33409505134079,2020-061AF,46301,6843.786,93.908,466.035,465.266,1,2023/3/26
GENERATED VIA SPACETRACK.ORG API,18 SPCS,46301,SPACEBEE-20,PAYLOAD,U,20061AF,2023/2/6 4:15,168256,15.33466896,0.0000541,97.4272,112.687,304.1551,55.964,0,999,13413,0.0020738,0.00067522,0,3774993,0 SPACEBEE-20,1 46301U 20061AF  23037.17759454  .00067522  00000-0  20738-2 0  9994,2 46301  97.4272 112.6870 0000541 304.1551  55.9640 15.33466896134133,2020-061AF,46301,6843.615,93.905,465.85,465.11,1,2023/3/27
GENERATED VIA SPACETRACK.ORG API,18 SPCS,46301,SPACEBEE-20,PAYLOAD,U,20061AF,2023/2/6 4:15,168256,15.33466896,0.0000541,97.4272,112.687,304.1551,55.964,0,999,13413,0.0020738,0.00067522,0,3775254,0 SPACEBEE-20,1 46301U 20061AF  23037.17759454  .00067522  00000-0  20738-2 0  9994,2 46301  97.4272 112.6870 0000541 304.1551  55.9640 15.33466896134133,2020-061AF,46301,6843.615,93.905,465.85,465.11,1,2023/3/28
GENERATED VIA SPACETRACK.ORG API,18 SPCS,46301,SPACEBEE-20,PAYLOAD,U,20061AF,2023/2/6 18:21,92352,15.33557773,0.0000622,97.4268,113.2773,307.0654,53.0532,0,999,13422,0.0023564,0.00077051,0,3776034,0 SPACEBEE-20,1 46301U 20061AF  23037.76486218  .00077051  00000-0  23564-2 0  9992,2 46301  97.4268 113.2773 0000622 307.0654  53.0532 15.33557773134227,2020-061AF,46301,6843.345,93.899,465.635,464.784,1,2023/3/29
GENERATED VIA SPACETRACK.ORG API,18 SPCS,46301,SPACEBEE-20,PAYLOAD,U,20061AF,2023/2/7 3:45,938944,15.33624776,0.0000603,97.4269,113.6707,298.4044,61.7138,0,999,13428,0.0023559,0.00077199,0,3776380,0 SPACEBEE-20,1 46301U 20061AF  23038.15635346  .00077199  00000-0  23559-2 0  9991,2 46301  97.4269 113.6707 0000603 298.4044  61.7138 15.33624776134286,2020-061AF,46301,6843.145,93.895,465.423,464.598,1,2023/3/30
GENERATED VIA SPACETRACK.ORG API,18 SPCS,46301,SPACEBEE-20,PAYLOAD,U,20061AF,2023/2/7 3:45,938944,15.33624776,0.0000603,97.4269,113.6707,298.4044,61.7138,0,999,13428,0.0023559,0.00077199,0,3777208,0 SPACEBEE-20,1 46301U 20061AF  23038.15635346  .00077199  00000-0  23559-2 0  9991,2 46301  97.4269 113.6707 0000603 298.4044  61.7138 15.33624776134286,2020-061AF,46301,6843.145,93.895,465.423,464.598,1,2023/3/31
GENERATED VIA SPACETRACK.ORG API,18 SPCS,46301,SPACEBEE-20,PAYLOAD,U,20061AF,2023/2/7 16:16,257888,15.33723767,0.0000612,97.4265,114.1957,301.7992,58.3191,0,999,13436,0.0027698,0.00091228,0,3777654,0 SPACEBEE-20,1 46301U 20061AF  23038.67831317  .00091228  00000-0  27698-2 0  9991,2 46301  97.4265 114.1957 0000612 301.7992  58.3191 15.33723767134365,2020-061AF,46301,6842.851,93.889,465.135,464.297,1,2023/4/1
GENERATED VIA SPACETRACK.ORG API,18 SPCS,46301,SPACEBEE-20,PAYLOAD,U,20061AF,2023/2/7 16:16,257888,15.33723767,0.0000612,97.4265,114.1957,301.7992,58.3191,0,999,13436,0.0027698,0.00091228,0,3777976,0 SPACEBEE-20,1 46301U 20061AF  23038.67831317  .00091228  00000-0  27698-2 0  9991,2 46301  97.4265 114.1957 0000612 301.7992  58.3191 15.33723767134365,2020-061AF,46301,6842.851,93.889,465.135,464.297,1,2023/4/2
